ONEWEB-0456             
1 51646U 22012AA  25271.89523995 -.00000404  00000+0 -11928-2 0  9998
2 51646  87.8746  88.3232 0001444  93.5294 266.5999 13.10371018175122
ONEWEB-0457             
1 51647U 22012AB  25271.87202411  .00000710  00000+0  19969-2 0  9995
2 51647  87.8738  88.3830 0002008  82.0818 278.0537 13.10372262175128
ONEWEB-0458             
1 51648U 22012AC  25271.89358789 -.00000308  00000+0 -91845-3 0  9997
2 51648  87.8735  88.3502 0001560  82.7112 277.4193 13.10370558175080
ONEWEB-0461             
1 51649U 22012AD  25271.93273586  .00000135  00000+0  31484-3 0  9993
2 51649  87.9073  57.7998 0001832  96.6170 263.5171 13.17647147179484
ONEWEB-0463             
1 51650U 22012AE  25271.91417616  .00000079  00000+0  17064-3 0  9992
2 51650  87.9059  57.8604 0001640  90.9865 269.1454 13.17647996179264
ONEWEB-0464             
1 51651U 22012AF  25271.89026910 -.00000179  00000+0 -55011-3 0  9990
2 51651  87.8734  88.3897 0001306  95.6481 264.4796 13.10370632175101
ONEWEB-0468             
1 51652U 22012AG  25271.89690622 -.00000411  00000+0 -12140-2 0  9992
2 51652  87.8739  88.3803 0001457  93.1296 266.9998 13.10371462175088
ONEWEB-0473             
1 51653U 22012AH  25271.88197623  .00000292  00000+0  80000-3 0  9991
2 51653  87.8739  88.3868 0001499  85.9622 274.1677 13.10370337175083
ONEWEB-0474             
1 51654U 22012AJ  25271.87368270  .00000659  00000+0  18518-2 0  9990
2 51654  87.8746  88.3500 0001275  84.2411 275.8862 13.10373899175074
ONEWEB-0475             
1 51655U 22012AK  25271.92599245  .00000050  00000+0  94568-4 0  9991
2 51655  87.9065  57.8425 0000984  72.9277 287.1962 13.17648589179289
ONEWEB-0490             
1 54113U 22138A   25271.79409392  .00000168  00000+0  38727-3 0  9994
2 54113  87.9286 356.9389 0001625 103.5384 256.5930 13.19725136142350
ONEWEB-0492             
1 54114U 22138B   25271.74354614  .00000063  00000+0  12550-3 0  9996
2 54114  87.9283 356.9704 0001828 107.5520 252.5812 13.19726829142355
ONEWEB-0495             
1 54115U 22138C   25271.79725598  .00000104  00000+0  22755-3 0  9999
2 54115  87.9275 356.9673 0001242 117.2887 242.8373 13.19725141142345
ONEWEB-0497             
1 54116U 22138D   25271.80988981 -.00005277  00000+0 -13215-1 0  9996
2 54116  87.9289 356.9433 0001773 108.4810 251.6516 13.19751700142338
ONEWEB-0499             
1 54117U 22138E   25271.79258636  .00000138  00000+0  31200-3 0  9997
2 54117  87.9277 356.9634 0001576  94.9833 265.1480 13.19726669142341
ONEWEB-0500             
1 54118U 22138F   25271.79568311  .00000171  00000+0  39442-3 0  9995
2 54118  87.9283 356.9497 0001817  99.3251 260.8087 13.19725843142356
ONEWEB-0501             
1 54119U 22138G   25271.74987140  .00000055  00000+0  10539-3 0  9993
2 54119  87.9289 356.9517 0001397 103.4435 256.6853 13.19725262142326
ONEWEB-0502             
1 54120U 22138H   25271.73564596  .00000110  00000+0  24170-3 0  9998
2 54120  87.9292 356.9372 0001512  98.7552 261.3752 13.19726426142342
ONEWEB-0503             
1 54121U 22138J   25271.80041042  .00000108  00000+0  23781-3 0  9997
2 54121  87.9288 356.9283 0001766  89.6650 270.4685 13.19725486142349
ONEWEB-0504             
1 54122U 22138K   25271.78777080  .00000139  00000+0  31594-3 0  9998
2 54122  87.9287 356.9478 0001472  95.6062 264.5238 13.19726338142359
ONEWEB-0505             
1 54123U 22138L   25271.78462600  .00000118  00000+0  26193-3 0  9994
2 54123  87.9287 356.9364 0001226 103.7630 256.3640 13.19725896142335
ONEWEB-0506             
1 54124U 22138M   25271.75933832 -.00000030  00000+0 -10667-3 0  9996
2 54124  87.9292 356.9394 0001631 100.4029 259.7288 13.19726251142321
ONEWEB-0507             
1 54125U 22138N   25271.77987511 -.00000002  00000+0 -38193-4 0  9996
2 54125  87.9273 356.9828 0001653 104.5764 255.5552 13.19725644142376
ONEWEB-0508             
1 54126U 22138P   25271.77670905  .00000027  00000+0  36309-4 0  9995
2 54126  87.9281 356.9696 0001499 110.1248 250.0046 13.19726862142356
ONEWEB-0509             
1 54127U 22138Q   25271.75145602 -.00000008  00000+0 -52498-4 0  9993
2 54127  87.9292 356.9392 0001695 101.8975 258.2348 13.19726551142321
ONEWEB-0510             
1 54128U 22138R   25271.69481464  .00000071  00000+0  14166-3 0  9993
2 54128  87.9243 326.5807 0002366  92.5256 267.6148 13.20771880144765
ONEWEB-0511             
1 54129U 22138S   25271.74827927  .00000069  00000+0  14102-3 0  9995
2 54129  87.9292 356.9441 0001716  91.4926 268.6403 13.19727209142353
ONEWEB-0512             
1 54130U 22138T   25271.74040307  .00000003  00000+0 -25934-4 0  9991
2 54130  87.9273 356.9825 0001354 100.2928 259.8357 13.19729862142323
ONEWEB-0513             
1 54131U 22138U   25271.77951627  .00000106  00000+0  23127-3 0  9995
2 54131  87.9292 356.9348 0001255  85.4830 274.6447 13.20315748142221
ONEWEB-0514             
1 54132U 22138V   25271.75619628  .00000106  00000+0  23183-3 0  9998
2 54132  87.9291 356.9562 0001878  95.3326 264.8021 13.19725422142344
ONEWEB-0515             
1 54133U 22138W   25271.68217083  .00000167  00000+0  37857-3 0  9990
2 54133  87.9255 326.5636 0002652 105.6379 254.5047 13.20772782144781
ONEWEB-0516             
1 54134U 22138X   25271.80673949  .00000168  00000+0  38731-3 0  9995
2 54134  87.9271 356.9745 0001706 104.7810 255.3511 13.19725155142353
ONEWEB-0517             
1 54135U 22138Y   25271.78620441  .00000038  00000+0  62855-4 0  9993
2 54135  87.9290 356.9456 0001795  89.7978 270.3361 13.19725742142351
ONEWEB-0518             
1 54136U 22138Z   25271.65351405  .00000116  00000+0  25792-3 0  9996
2 54136  87.9279 357.0059 0001632 101.3300 258.8016 13.19726362142335
ONEWEB-0519             
1 54137U 22138AA  25271.75461408 -.00000002  00000+0 -36494-4 0  9991
2 54137  87.9291 356.9432 0001737  92.6326 267.5005 13.19726668142355
ONEWEB-0520             
1 54138U 22138AB  25271.78935110  .00000108  00000+0  23826-3 0  9990
2 54138  87.9287 356.9404 0001481 105.5281 254.6016 13.19726382142341
ONEWEB-0521             
1 54139U 22138AC  25271.74671698  .00000923  00000+0  22726-2 0  9997
2 54139  87.9289 356.9345 0001836  91.7781 268.3562 13.19719523142283
ONEWEB-0522             
1 54140U 22138AD  25271.80198603  .00000151  00000+0  34529-3 0  9994
2 54140  87.9287 356.9244 0001726 102.0836 258.0490 13.19727631142337
ONEWEB-0523             
1 54141U 22138AE  25271.21502285  .00000056  00000+0  10552-3 0  9999
2 54141  87.9245 326.6816 0002715  93.3213 266.8231 13.20773202144723
ONEWEB-0524             
1 54142U 22138AF  25271.58275231  .00000088  00000+0  18518-3 0  9993
2 54142  87.9247 326.6091 0002547 112.3845 247.7558 13.20770817144771
ONEWEB-0525             
1 54143U 22138AG  25271.74513016  .00000074  00000+0  15317-3 0  9997
2 54143  87.9292 356.9574 0001496 104.0385 256.0914 13.19725049142348
ONEWEB-0526             
1 54144U 22138AH  25271.77829643 -.00000006  00000+0 -48195-4 0  9995
2 54144  87.9285 356.9375 0001770 103.4370 256.6960 13.19725849142325
ONEWEB-0529             
1 54145U 22138AJ  25271.78146553 -.00000035  00000+0 -12010-3 0  9997
2 54145  87.9276 356.9755 0001605 105.4697 254.6613 13.19725487142342
ONEWEB-0531             
1 54146U 22138AK  25271.72004825 -.00000187  00000+0 -49171-3 0  9993
2 54146  87.9245 326.5727 0002760  98.8872 261.2574 13.20770554144792
ONEWEB-0535             
1 54147U 22138AL  25271.73880491  .00000041  00000+0  69856-4 0  9996
2 54147  87.9294 356.9411 0002171  94.7145 265.4236 13.19726752142358
ONEWEB-0536             
1 54148U 22138AM  25271.70743298  .00000077  00000+0  15777-3 0  9998
2 54148  87.9243 326.6223 0002889 103.0291 257.1165 13.20772038144788
ONEWEB-0527             
1 54642U 22166A   25271.64032172  .00000089  00000+0  18477-3 0  9996
2 54642  87.9180 296.1941 0001852  95.4617 264.6728 13.21823710136986
ONEWEB-0528             
1 54643U 22166B   25271.57092868  .00000105  00000+0  22266-3 0  9997
2 54643  87.9184 296.2107 0001802  95.4535 264.6805 13.21823602136986
ONEWEB-0539             
1 54644U 22166C   25271.83430423  .00000045  00000+0  76398-4 0  9999
2 54644  87.9176 296.1248 0001765  88.3900 271.7436 13.21825909137014
ONEWEB-0540             
1 54645U 22166D   25271.46226392 -.00000015  00000+0 -67512-4 0  9994
2 54645  87.9180 296.2369 0001771  86.3332 273.8004 13.21824952136952
ONEWEB-0542             
1 54646U 22166E   25271.46527292 -.00000003  00000+0 -39393-4 0  9991
2 54646  87.9177 296.1960 0001858  80.5208 279.6136 13.21824925136960
ONEWEB-0545             
1 54647U 22166F   25271.58354366 -.00000004  00000+0 -41872-4 0  9991
2 54647  87.9178 296.1918 0001634  76.7140 283.4177 13.21823883136947
ONEWEB-0580             
1 54648U 22166G   25271.85952807  .00000107  00000+0  22855-3 0  9997
2 54648  87.9181 296.1350 0001933  80.7038 279.4315 13.21826149137022
ONEWEB-0582             
1 54649U 22166H   25271.52362592  .00000053  00000+0  96408-4 0  9994
2 54649  87.9175 296.1955 0001939  76.8421 283.2929 13.21824331136951
ONEWEB-0583             
1 54650U 22166J   25271.53466843  .00000008  00000+0 -11493-4 0  9993
2 54650  87.9178 296.2184 0001775  88.6615 271.4722 13.21824516136961
ONEWEB-0584             
1 54651U 22166K   25271.63085926  .00000070  00000+0  13853-3 0  9993
2 54651  87.9179 296.1844 0002037  82.1945 277.9420 13.21825111136960
ONEWEB-0585             
1 54652U 22166L   25270.59634153 -.00000004  00000+0 -42007-4 0  9993
2 54652  87.9182 296.3766 0001903  96.6733 263.4617 13.21824171136835
ONEWEB-0586             
1 54653U 22166M   25271.13883729 -.00000001  00000+0 -33570-4 0  9992
2 54653  87.9181 296.2935 0001824  87.3882 272.7461 13.21824922136908
ONEWEB-0587             
1 54654U 22166N   25271.52677956 -.00000001  00000+0 -33223-4 0  9994
2 54654  87.9186 296.1639 0001993 104.9381 255.1974 13.21826780137113
